{"type": "FeatureCollection", "features": [ {"type": "Feature", "properties": {"norad_id": 37966, "name": "COSMOS 2251 DEB", "group": "cosmos-2251-debris", "lat": -66.56689262683281, "lon": -163.8744812554364, "alt_km": 541.9320299304254, "timestamp": "2025-12-09T07:41:33.609651+00:00", "meta": {"OBJECT_NAME": "COSMOS 2251 DEB", "OBJECT_ID": "1993-036BPR", "EPOCH": "2025-12-04T00:57:24.425856", "MEAN_MOTION": 15.1122342, "ECCENTRICITY": 0.0008631, "INCLINATION": 73.977, "RA_OF_ASC_NODE": 248.6217, "ARG_OF_PERICENTER": 122.4784, "MEAN_ANOMALY": 237.7244, "EPHEMERIS_TYPE": 0, "CLASSIFICATION_TYPE": "U", "NORAD_CAT_ID": 37966, "ELEMENT_SET_NO": 999, "REV_AT_EPOCH": 85211, "BSTAR": 0.0061628837, "MEAN_MOTION_DOT": 0.00105178, "MEAN_MOTION_DDOT": 0}, "tle": {"line1": "1 37966U 93036BPR 25338.03986604  .00105178  00000+0  61629-2 0  9996", "line2": "2 37966  73.9770 248.6217 0008631 122.4784 237.7244 15.11223420852119"}}, "geometry": {"type": "Point", "coordinates": [-163.8744812554364, -66.56689262683281]}}, {"type": "Feature", "properties": {"norad_id": 37967, "name": "COSMOS 2251 DEB", "group": "cosmos-2251-debris", "lat": 59.01290480029361, "lon": -64.79244692545113, "alt_km": 855.3913783748494, "timestamp": "2025-12-09T07:41:33.609664+00:00", "meta": {"OBJECT_NAME": "COSMOS 2251 DEB", "OBJECT_ID": "1993-036BPS", "EPOCH": "2025-12-08T04:28:24.535776", "MEAN_MOTION": 14.40441797, "ECCENTRICITY": 0.01507915, "INCLINATION": 74.0147, "RA_OF_ASC_NODE": 145.8177, "ARG_OF_PERICENTER": 285.5804, "MEAN_ANOMALY": 72.875, "EPHEMERIS_TYPE": 0, "CLASSIFICATION_TYPE": "U", "NORAD_CAT_ID": 37967, "ELEMENT_SET_NO": 999, "REV_AT_EPOCH": 64670, "BSTAR": 0.0018858516, "MEAN_MOTION_DOT": 6.833e-05, "MEAN_MOTION_DDOT": 0}, "tle": {"line1": "1 37967U 93036BPS 25342.18639509  .00006833  00000+0  18859-2 0  9992", "line2": "2 37967  74.0147 145.8177 0150791 285.5804  72.8750 14.40441797646708"}}, "geometry": {"type": "Point", "coordinates": [-64.79244692545113, 59.01290480029361]}}, {"type": "Feature", "properties": {"norad_id": 37968, "name": "COSMOS 2251 DEB", "group": "cosmos-2251-debris", "lat": -64.27223686185371, "lon": 134.67238003057176, "alt_km": 618.0941091305995, "timestamp": "2025-12-09T07:41:33.609675+00:00", "meta": {"OBJECT_NAME": "COSMOS 2251 DEB", "OBJECT_ID": "1993-036BPT", "EPOCH": "2025-12-08T12:58:54.814944", "MEAN_MOTION": 15.00440305, "ECCENTRICITY": 0.0080589, "INCLINATION": 74.0015, "RA_OF_ASC_NODE": 279.7179, "ARG_OF_PERICENTER": 36.5177, "MEAN_ANOMALY": 324.1466, "EPHEMERIS_TYPE": 0, "CLASSIFICATION_TYPE": "U", "NORAD_CAT_ID": 37968, "ELEMENT_SET_NO": 999, "REV_AT_EPOCH": 60156, "BSTAR": 0.0013442, "MEAN_MOTION_DOT": 0.00018125, "MEAN_MOTION_DDOT": 0}, "tle": {"line1": "1 37968U 93036BPT 25342.54091221  .00018125  00000+0  13442-2 0  9996", "line2": "2 37968  74.0015 279.7179 0080589  36.5177 324.1466 15.00440305601569"}}, "geometry": {"type": "Point", "coordinates": [134.67238003057176, -64.27223686185371]}}, {"type": "Feature", "properties": {"norad_id": 37971, "name": "COSMOS 2251 DEB", "group": "cosmos-2251-debris", "lat": 73.46922125929132, "lon": 123.45161703643576, "alt_km": 732.5066185692549, "timestamp": "2025-12-09T07:41:33.609685+00:00", "meta": {"OBJECT_NAME": "COSMOS 2251 DEB", "OBJECT_ID": "1993-036BPW", "EPOCH": "2025-12-08T11:24:13.177728", "MEAN_MOTION": 14.48533173, "ECCENTRICITY": 0.00678252, "INCLINATION": 73.993, "RA_OF_ASC_NODE": 49.7525, "ARG_OF_PERICENTER": 189.4102, "MEAN_ANOMALY": 170.5792, "EPHEMERIS_TYPE": 0, "CLASSIFICATION_TYPE": "U", "NORAD_CAT_ID": 37971, "ELEMENT_SET_NO": 999, "REV_AT_EPOCH": 60616, "BSTAR": 0.0028347119, "MEAN_MOTION_DOT": 0.00010949, "MEAN_MOTION_DDOT": 0}, "tle": {"line1": "1 37971U 93036BPW 25342.47515252  .00010949  00000+0  28347-2 0  9993", "line2": "2 37971  73.9930  49.7525 0067825 189.4102 170.5792 14.48533173606164"}}, "geometry": {"type": "Point", "coordinates": [123.45161703643576, 73.46922125929132]}}, {"type": "Feature", "properties": {"norad_id": 37975, "name": "COSMOS 2251 DEB", "group": "cosmos-2251-debris", "lat": -0.9769928428431295, "lon": -29.504105067514526, "alt_km": 592.0759476763624, "timestamp": "2025-12-09T07:41:33.609695+00:00", "meta": {"OBJECT_NAME": "COSMOS 2251 DEB", "OBJECT_ID": "1993-036BQA", "EPOCH": "2025-12-08T05:39:54.402048", "MEAN_MOTION": 14.7566979, "ECCENTRICITY": 0.00966582, "INCLINATION": 74.0031, "RA_OF_ASC_NODE": 332.9016, "ARG_OF_PERICENTER": 323.2275, "MEAN_ANOMALY": 36.2292, "EPHEMERIS_TYPE": 0, "CLASSIFICATION_TYPE": "U", "NORAD_CAT_ID": 37975, "ELEMENT_SET_NO": 999, "REV_AT_EPOCH": 69679, "BSTAR": 0.0047432539, "MEAN_MOTION_DOT": 0.00035118, "MEAN_MOTION_DDOT": 0}, "tle": {"line1": "1 37975U 93036BQA 25342.23604632  .00035118  00000+0  47433-2 0  9994", "line2": "2 37975  74.0031 332.9016 0096658 323.2275  36.2292 14.75669790696795"}}, "geometry": {"type": "Point", "coordinates": [-29.504105067514526, -0.9769928428431295]}}, {"type": "Feature", "properties": {"norad_id": 37978, "name": "COSMOS 2251 DEB", "group": "cosmos-2251-debris", "lat": -60.415886829712775, "lon": -52.83999670136576, "alt_km": 335.28670332930596, "timestamp": "2025-12-09T07:41:33.609706+00:00", "meta": {"OBJECT_NAME": "COSMOS 2251 DEB", "OBJECT_ID": "1993-036BQD", "EPOCH": "2025-11-19T05:08:53.100672", "MEAN_MOTION": 15.61137081, "ECCENTRICITY": 0.00148985, "INCLINATION": 74.0238, "RA_OF_ASC_NODE": 142.2198, "ARG_OF_PERICENTER": 140.9849, "MEAN_ANOMALY": 219.2448, "EPHEMERIS_TYPE": 0, "CLASSIFICATION_TYPE": "U", "NORAD_CAT_ID": 37978, "ELEMENT_SET_NO": 999, "REV_AT_EPOCH": 8032, "BSTAR": 0.0043958825, "MEAN_MOTION_DOT": 0.0039117, "MEAN_MOTION_DDOT": 0}, "tle": {"line1": "1 37978U 93036BQD 25323.21450348  .00391170  00000+0  43959-2 0  9999", "line2": "2 37978  74.0238 142.2198 0014898 140.9849 219.2448 15.61137081 80328"}}, "geometry": {"type": "Point", "coordinates": [-52.83999670136576, -60.415886829712775]}}, {"type": "Feature", "properties": {"norad_id": 37985, "name": "COSMOS 2251 DEB", "group": "cosmos-2251-debris", "lat": -21.981530128718017, "lon": 98.65307877244946, "alt_km": 792.809224306774, "timestamp": "2025-12-09T07:41:33.609716+00:00", "meta": {"OBJECT_NAME": "COSMOS 2251 DEB", "OBJECT_ID": "1993-036BQL", "EPOCH": "2025-12-07T12:56:14.167968", "MEAN_MOTION": 14.35480265, "ECCENTRICITY": 0.00206161, "INCLINATION": 74.0254, "RA_OF_ASC_NODE": 275.2818, "ARG_OF_PERICENTER": 39.5807, "MEAN_ANOMALY": 320.6846, "EPHEMERIS_TYPE": 0, "CLASSIFICATION_TYPE": "U", "NORAD_CAT_ID": 37985, "ELEMENT_SET_NO": 999, "REV_AT_EPOCH": 64842, "BSTAR": 0.0001017568, "MEAN_MOTION_DOT": 2.67e-06, "MEAN_MOTION_DDOT": 0}, "tle": {"line1": "1 37985U 93036BQL 25341.53905287  .00000267  00000+0  10176-3 0  9999", "line2": "2 37985  74.0254 275.2818 0020616  39.5807 320.6846 14.35480265648427"}}, "geometry": {"type": "Point", "coordinates": [98.65307877244946, -21.981530128718017]}}, {"type": "Feature", "properties": {"norad_id": 37988, "name": "COSMOS 2251 DEB", "group": "cosmos-2251-debris", "lat": 24.156542132809815, "lon": -156.73185873919817, "alt_km": 660.1084474855843, "timestamp": "2025-12-09T07:41:33.609727+00:00", "meta": {"OBJECT_NAME": "COSMOS 2251 DEB", "OBJECT_ID": "1993-036BQP", "EPOCH": "2025-12-08T13:00:57.140928", "MEAN_MOTION": 14.6880347, "ECCENTRICITY": 0.0063188, "INCLINATION": 74.0631, "RA_OF_ASC_NODE": 32.1342, "ARG_OF_PERICENTER": 70.9756, "MEAN_ANOMALY": 289.8245, "EPHEMERIS_TYPE": 0, "CLASSIFICATION_TYPE": "U", "NORAD_CAT_ID": 37988, "ELEMENT_SET_NO": 999, "REV_AT_EPOCH": 23334, "BSTAR": 0.0011554, "MEAN_MOTION_DOT": 6.927e-05, "MEAN_MOTION_DDOT": 0}, "tle": {"line1": "1 37988U 93036BQP 25342.54232802  .00006927  00000+0  11554-2 0  9999", "line2": "2 37988  74.0631  32.1342 0063188  70.9756 289.8245 14.68803470233347"}}, "geometry": {"type": "Point", "coordinates": [-156.73185873919817, 24.156542132809815]}}, {"type": "Feature", "properties": {"norad_id": 37993, "name": "COSMOS 2251 DEB", "group": "cosmos-2251-debris", "lat": 39.87501681417271, "lon": -172.70715346517323, "alt_km": 702.0020501930376, "timestamp": "2025-12-09T07:41:33.609738+00:00", "meta": {"OBJECT_NAME": "COSMOS 2251 DEB", "OBJECT_ID": "1993-036BQU", "EPOCH": "2025-12-07T19:19:05.524320", "MEAN_MOTION": 14.59827594, "ECCENTRICITY": 0.00219292, "INCLINATION": 74.0217, "RA_OF_ASC_NODE": 176.3367, "ARG_OF_PERICENTER": 265.5218, "MEAN_ANOMALY": 94.3442, "EPHEMERIS_TYPE": 0, "CLASSIFICATION_TYPE": "U", "NORAD_CAT_ID": 37993, "ELEMENT_SET_NO": 999, "REV_AT_EPOCH": 65245, "BSTAR": 0.0021240239, "MEAN_MOTION_DOT": 0.00010174, "MEAN_MOTION_DDOT": 0}, "tle": {"line1": "1 37993U 93036BQU 25341.80492505  .00010174  00000+0  21240-2 0  9993", "line2": "2 37993  74.0217 176.3367 0021929 265.5218  94.3442 14.59827594652451"}}, "geometry": {"type": "Point", "coordinates": [-172.70715346517323, 39.87501681417271]}}, {"type": "Feature", "properties": {"norad_id": 37994, "name": "COSMOS 2251 DEB", "group": "cosmos-2251-debris", "lat": 17.585549676436923, "lon": -72.79250309475954, "alt_km": 744.2632104580398, "timestamp": "2025-12-09T07:41:33.609749+00:00", "meta": {"OBJECT_NAME": "COSMOS 2251 DEB", "OBJECT_ID": "1993-036BQV", "EPOCH": "2025-12-08T21:36:05.419872", "MEAN_MOTION": 14.39608712, "ECCENTRICITY": 0.00227656, "INCLINATION": 74.037, "RA_OF_ASC_NODE": 282.7786, "ARG_OF_PERICENTER": 2.9535, "MEAN_ANOMALY": 357.1749, "EPHEMERIS_TYPE": 0, "CLASSIFICATION_TYPE": "U", "NORAD_CAT_ID": 37994, "ELEMENT_SET_NO": 999, "REV_AT_EPOCH": 77009, "BSTAR": 0.00054825708, "MEAN_MOTION_DOT": 1.692e-05, "MEAN_MOTION_DDOT": 0}, "tle": {"line1": "1 37994U 93036BQV 25342.90006273  .00001692  00000+0  54826-3 0  9991", "line2": "2 37994  74.0370 282.7786 0022765   2.9535 357.1749 14.39608712770091"}}, "geometry": {"type": "Point", "coordinates": [-72.79250309475954, 17.585549676436923]}}]}